OBJECT_NAME,OBJECT_ID,EPOCH,MEAN_MOTION,ECCENTRICITY,INCLINATION,RA_OF_ASC_NODE,ARG_OF_PERICENTER,MEAN_ANOMALY,EPHEMERIS_TYPE,CLASSIFICATION_TYPE,NORAD_CAT_ID,ELEMENT_SET_NO,REV_AT_EPOCH,BSTAR,MEAN_MOTION_DOT,MEAN_MOTION_DDOT
STARLINK-36944,2026-040Q,2026-03-21T12:00:00.999648,15.75252096,.00012912,97.2856,29.5440,94.0698,333.6375,0,U,68029,999,432,-.11188205E-2,-.164284E-2,0
STARLINK-36942,2026-040R,2026-03-21T12:00:00.999648,15.75260415,.00013965,97.2853,29.5495,98.2757,333.4327,0,U,68030,999,432,-.15331509E-2,-.223617E-2,0
STARLINK-36913,2026-040S,2026-03-21T12:00:00.999648,15.75287418,.0001467,97.2849,29.5514,88.7901,346.9163,0,U,68031,999,432,-.17240696E-2,-.25095E-2,0
STARLINK-36935,2026-040T,2026-03-21T12:00:00.999648,15.75308876,.00014149,97.2864,29.5638,115.3265,348.3840,0,U,68032,999,442,-.22557759E-2,-.32578E-2,0
STARLINK-36947,2026-040U,2026-03-21T12:00:00.999648,15.75288324,.00017475,97.2848,29.5535,116.9496,322.7529,0,U,68033,999,432,-.14503782E-2,-.212103E-2,0
STARLINK-36939,2026-040V,2026-03-21T12:00:00.999648,15.75031805,.00026161,97.2848,29.5623,111.2242,344.5407,0,U,68034,999,432,-.46185474E-3,-.6802E-3,0
STARLINK-36943,2026-040W,2026-03-21T12:00:00.999648,15.75291016,.00014373,97.2857,29.5675,89.6024,12.1205,0,U,68035,999,437,-.18903655E-2,-.274439E-2,0
STARLINK-36906,2026-040X,2026-03-21T12:00:00.999648,15.75292536,.00016131,97.2851,29.5608,73.0869,18.6283,0,U,68036,999,432,-.15470348E-2,-.225904E-2,0
STARLINK-36388,2026-040Y,2026-03-21T12:00:00.999648,15.75281574,.00012731,97.2850,29.5647,49.5478,50.1693,0,U,68037,999,427,-.13136859E-2,-.19249E-2,0
STARLINK-36895,2026-040Z,2026-03-21T12:00:00.999648,15.75285969,.00015983,97.2852,29.5560,93.6304,354.0880,0,U,68038,999,432,-.14925731E-2,-.218091E-2,0
STARLINK-36373,2026-040AA,2026-03-21T12:00:00.999648,15.75288060,.00013364,97.2853,29.5546,91.8131,351.8990,0,U,68039,999,427,-.18004007E-2,-.26173E-2,0
STARLINK-36711,2026-041A,2026-03-21T12:10:27.346080,15.75435510,.00011729,53.1594,3.1973,85.9187,274.1967,0,U,68040,999,308,.2426676E-2,.392483E-2,0
STARLINK-36825,2026-041B,2026-03-21T11:33:46.452096,15.81007373,.00017482,53.1594,3.0265,69.1216,290.9994,0,U,68041,999,308,.14693354E-2,.301515E-2,0
STARLINK-36925,2026-041C,2026-03-21T12:10:56.253792,15.75442840,.00022028,53.1593,3.1986,67.8174,292.3080,0,U,68042,999,308,.28497247E-2,.465186E-2,0
STARLINK-36902,2026-041D,2026-03-21T11:32:43.142496,15.80981204,.00019461,53.1594,3.0230,79.2298,280.8944,0,U,68043,999,308,.19269165E-2,.399732E-2,0
STARLINK-36966,2026-041E,2026-03-21T12:04:23.670336,15.75360794,.00013054,53.1598,3.1688,97.1610,262.9559,0,U,68044,999,308,.16019468E-2,.253774E-2,0
STARLINK-36864,2026-041F,2026-03-21T09:01:12.289152,15.75435808,.00012651,53.1597,3.7976,91.6218,268.4948,0,U,68045,999,306,.27108985E-2,.4411E-2,0
STARLINK-36321,2026-041G,2026-03-21T06:55:15.623328,15.81047482,.00002988,53.1598,3.9536,99.9393,260.1664,0,U,68046,999,305,.14932867E-2,.307236E-2,0
STARLINK-36181,2026-041H,2026-03-21T06:56:21.178464,15.81011636,.0000779,53.1599,3.9584,99.8212,260.2899,0,U,68047,999,305,.14705205E-2,.301838E-2,0
STARLINK-36318,2026-041J,2026-03-21T11:57:51.503328,15.75408356,.00012912,53.1605,3.1386,73.3749,286.7413,0,U,68048,999,308,.21790328E-2,.350161E-2,0
STARLINK-36885,2026-041K,2026-03-21T11:57:23.084640,15.75394399,.00011957,53.1604,3.1364,86.2576,273.8582,0,U,68049,999,308,.20530406E-2,.328835E-2,0
STARLINK-36945,2026-041L,2026-03-21T06:53:07.140480,15.80943144,.0000751,53.1594,3.9427,131.1313,228.9775,0,U,68050,999,305,.89549475E-3,.180365E-2,0
STARLINK-35911,2026-041M,2026-03-21T06:50:57.457536,15.80940258,.00014259,53.1594,3.9330,106.6494,253.4686,0,U,68051,999,305,.6885172E-3,.137809E-2,0
STARLINK-35808,2026-041N,2026-03-21T12:00:00.999648,15.75762033,.00008952,53.1593,2.8677,75.6823,61.2916,0,U,68052,999,423,-.52598687E-2,-.755739E-2,0
STARLINK-36919,2026-041P,2026-03-21T08:19:50.159712,15.80960054,.00007314,53.1595,3.6048,114.0939,246.0161,0,U,68053,999,306,.17423365E-2,.359333E-2,0
STARLINK-36924,2026-041Q,2026-03-21T11:51:19.321632,15.75414651,.00013424,53.1604,3.1080,82.3367,277.7806,0,U,68054,999,308,.23054702E-2,.37157E-2,0
STARLINK-35998,2026-041R,2026-03-21T08:18:44.444736,15.81027660,.00004958,53.1594,3.6000,100.3549,259.7530,0,U,68055,999,306,.15591909E-2,.321048E-2,0
STARLINK-36845,2026-041S,2026-03-21T06:45:33.133536,15.80929237,.00011644,53.1592,3.9068,136.3543,223.7572,0,U,68056,999,305,.47160167E-3,.93638E-3,0
STARLINK-36954,2026-041T,2026-03-21T11:50:51.007488,15.75426425,.00011942,53.1602,3.1052,87.7016,272.4141,0,U,68057,999,308,.24435509E-2,.395188E-2,0
STARLINK-36899,2026-041U,2026-03-21T14:47:32.018784,15.75224431,.00005534,53.1601,2.4463,145.4288,214.6768,0,U,68058,999,310,.53956984E-3,.8283E-3,0
