STARLINK-36944          
1 68029U 26040Q   26080.50001157 -.00164284  00000+0 -11188-2 0  9999
2 68029  97.2856  29.5440 0001291  94.0698 333.6375 15.75252096  4328
STARLINK-36942          
1 68030U 26040R   26080.50001157 -.00223617  00000+0 -15332-2 0  9992
2 68030  97.2853  29.5495 0001396  98.2757 333.4327 15.75260415  4324
STARLINK-36913          
1 68031U 26040S   26080.50001157 -.00250950  00000+0 -17241-2 0  9994
2 68031  97.2849  29.5514 0001467  88.7901 346.9163 15.75287418  4325
STARLINK-36935          
1 68032U 26040T   26080.50001157 -.00325780  00000+0 -22558-2 0  9996
2 68032  97.2864  29.5638 0001414 115.3265 348.3840 15.75308876  4423
STARLINK-36947          
1 68033U 26040U   26080.50001157 -.00212103  00000+0 -14504-2 0  9993
2 68033  97.2848  29.5535 0001747 116.9496 322.7529 15.75288324  4328
STARLINK-36939          
1 68034U 26040V   26080.50001157 -.00068020  00000+0 -46185-3 0  9992
2 68034  97.2848  29.5623 0002616 111.2242 344.5407 15.75031805  4327
STARLINK-36943          
1 68035U 26040W   26080.50001157 -.00274439  00000+0 -18904-2 0  9993
2 68035  97.2857  29.5675 0001437  89.6024  12.1205 15.75291016  4372
STARLINK-36906          
1 68036U 26040X   26080.50001157 -.00225904  00000+0 -15470-2 0  9992
2 68036  97.2851  29.5608 0001613  73.0869  18.6283 15.75292536  4323
STARLINK-36388          
1 68037U 26040Y   26080.50001157 -.00192490  00000+0 -13137-2 0  9994
2 68037  97.2850  29.5647 0001273  49.5478  50.1693 15.75281574  4272
STARLINK-36895          
1 68038U 26040Z   26080.50001157 -.00218091  00000+0 -14926-2 0  9998
2 68038  97.2852  29.5560 0001598  93.6304 354.0880 15.75285969  4329
STARLINK-36373          
1 68039U 26040AA  26080.50001157 -.00261730  00000+0 -18004-2 0  9998
2 68039  97.2853  29.5546 0001336  91.8131 351.8990 15.75288060  4279
STARLINK-36711          
1 68040U 26041A   26080.50726095  .00392483  00000+0  24267-2 0  9992
2 68040  53.1594   3.1973 0001172  85.9187 274.1967 15.75435510  3082
STARLINK-36825          
1 68041U 26041B   26080.48178764  .00301515  00000+0  14693-2 0  9992
2 68041  53.1594   3.0265 0001748  69.1216 290.9994 15.81007373  3087
STARLINK-36925          
1 68042U 26041C   26080.50759553  .00465186  00000+0  28497-2 0  9999
2 68042  53.1593   3.1986 0002202  67.8174 292.3080 15.75442840  3089
STARLINK-36902          
1 68043U 26041D   26080.48105489  .00399732  00000+0  19269-2 0  9990
2 68043  53.1594   3.0230 0001946  79.2298 280.8944 15.80981204  3089
STARLINK-36966          
1 68044U 26041E   26080.50305174  .00253774  00000+0  16019-2 0  9992
2 68044  53.1598   3.1688 0001305  97.1610 262.9559 15.75360794  3080
STARLINK-36864          
1 68045U 26041F   26080.37583668  .00441100  00000+0  27109-2 0  9998
2 68045  53.1597   3.7976 0001265  91.6218 268.4948 15.75435808  3064
STARLINK-36321          
1 68046U 26041G   26080.28837527  .00307236  00000+0  14933-2 0  9997
2 68046  53.1598   3.9536 0000298  99.9393 260.1664 15.81047482  3057
STARLINK-36181          
1 68047U 26041H   26080.28913401  .00301838  00000+0  14705-2 0  9993
2 68047  53.1599   3.9584 0000779  99.8212 260.2899 15.81011636  3058
STARLINK-36318          
1 68048U 26041J   26080.49851277  .00350161  00000+0  21790-2 0  9994
2 68048  53.1605   3.1386 0001291  73.3749 286.7413 15.75408356  3081
STARLINK-36885          
1 68049U 26041K   26080.49818385  .00328835  00000+0  20530-2 0  9992
2 68049  53.1604   3.1364 0001195  86.2576 273.8582 15.75394399  3086
STARLINK-36945          
1 68050U 26041L   26080.28688820  .00180365  00000+0  89549-3 0  9990
2 68050  53.1594   3.9427 0000751 131.1313 228.9775 15.80943144  3056
STARLINK-35911          
1 68051U 26041M   26080.28538724  .00137809  00000+0  68852-3 0  9997
2 68051  53.1594   3.9330 0001425 106.6494 253.4686 15.80940258  3053
STARLINK-35808          
1 68052U 26041N   26080.50001157 -.00755739  00000+0 -52599-2 0  9998
2 68052  53.1593   2.8677 0000895  75.6823  61.2916 15.75762033  4235
STARLINK-36919          
1 68053U 26041P   26080.34710833  .00359333  00000+0  17423-2 0  9994
2 68053  53.1595   3.6048 0000731 114.0939 246.0161 15.80960054  3068
STARLINK-36924          
1 68054U 26041Q   26080.49397363  .00371570  00000+0  23055-2 0  9995
2 68054  53.1604   3.1080 0001342  82.3367 277.7806 15.75414651  3082
STARLINK-35998          
1 68055U 26041R   26080.34634774  .00321048  00000+0  15592-2 0  9992
2 68055  53.1594   3.6000 0000495 100.3549 259.7530 15.81027660  3068
STARLINK-36845          
1 68056U 26041S   26080.28163349  .00093638  00000+0  47160-3 0  9999
2 68056  53.1592   3.9068 0001164 136.3543 223.7572 15.80929237  3057
STARLINK-36954          
1 68057U 26041T   26080.49364592  .00395188  00000+0  24436-2 0  9991
2 68057  53.1602   3.1052 0001194  87.7016 272.4141 15.75426425  3083
STARLINK-36899          
1 68058U 26041U   26080.61634281  .00082830  00000+0  53957-3 0  9999
2 68058  53.1601   2.4463 0000553 145.4288 214.6768 15.75224431  3101
